{
  "type": "FeatureCollection",
  "features": [
    {
      "type": "Feature",
      "properties": {
        "norad_id": 37021,
        "name": "FENGYUN 1C DEB",
        "group": "fengyun-1c-debris",
        "lat": 24.83748415745086,
        "lon": -9.645141009469537,
        "alt_km": 814.6586379616838,
        "timestamp": "2025-12-03T06:58:43.526918+00:00",
        "meta_object_name": "FENGYUN 1C DEB",
        "meta_object_id": "1999-025EDD",
        "meta_epoch": "2025-12-02T07:28:20.533728",
        "meta_mean_motion": 14.32194675,
        "meta_eccentricity": 0.01757601,
        "meta_inclination": 98.3868,
        "meta_ra_of_asc_node": 353.3227,
        "meta_arg_of_pericenter": 282.8972,
        "meta_mean_anomaly": 93.4182,
        "meta_ephemeris_type": 0,
        "meta_classification_type": "U",
        "meta_norad_cat_id": 37021,
        "meta_element_set_no": 999,
        "meta_rev_at_epoch": 69905,
        "meta_bstar": 0.0009398124,
        "meta_mean_motion_dot": 2.955e-05,
        "meta_mean_motion_ddot": 0,
        "tle_line1": "1 37021U 99025EDD 25336.31134877  .00002955  00000+0  93981-3 0  9994",
        "tle_line2": "2 37021  98.3868 353.3227 0175760 282.8972  93.4182 14.32194675699054"
      },
      "geometry": {
        "type": "Point",
        "coordinates": [
          -9.645141009469537,
          24.83748415745086
        ]
      }
    },
    {
      "type": "Feature",
      "properties": {
        "norad_id": 37028,
        "name": "FENGYUN 1C DEB",
        "group": "fengyun-1c-debris",
        "lat": -4.772356284481686,
        "lon": -114.67275863446781,
        "alt_km": 834.9443755206694,
        "timestamp": "2025-12-03T06:58:43.526928+00:00",
        "meta_object_name": "FENGYUN 1C DEB",
        "meta_object_id": "1999-025EDL",
        "meta_epoch": "2025-12-02T00:37:04.555488",
        "meta_mean_motion": 14.22608524,
        "meta_eccentricity": 0.00323274,
        "meta_inclination": 99.245,
        "meta_ra_of_asc_node": 243.2217,
        "meta_arg_of_pericenter": 128.9673,
        "meta_mean_anomaly": 231.4391,
        "meta_ephemeris_type": 0,
        "meta_classification_type": "U",
        "meta_norad_cat_id": 37028,
        "meta_element_set_no": 999,
        "meta_rev_at_epoch": 60323,
        "meta_bstar": 0.0019305043,
        "meta_mean_motion_dot": 4.293e-05,
        "meta_mean_motion_ddot": 0,
        "tle_line1": "1 37028U 99025EDL 25336.02574717  .00004293  00000+0  19305-2 0  9994",
        "tle_line2": "2 37028  99.2450 243.2217 0032327 128.9673 231.4391 14.22608524603236"
      },
      "geometry": {
        "type": "Point",
        "coordinates": [
          -114.67275863446781,
          -4.772356284481686
        ]
      }
    },
    {
      "type": "Feature",
      "properties": {
        "norad_id": 37036,
        "name": "FENGYUN 1C DEB",
        "group": "fengyun-1c-debris",
        "lat": 44.69914522716021,
        "lon": -38.31366659000468,
        "alt_km": 804.2297898376955,
        "timestamp": "2025-12-03T06:58:43.526938+00:00",
        "meta_object_name": "FENGYUN 1C DEB",
        "meta_object_id": "1999-025EDU",
        "meta_epoch": "2025-11-29T17:13:14.386368",
        "meta_mean_motion": 14.03538863,
        "meta_eccentricity": 0.01244167,
        "meta_inclination": 98.713,
        "meta_ra_of_asc_node": 326.9903,
        "meta_arg_of_pericenter": 91.472,
        "meta_mean_anomaly": 270.0704,
        "meta_ephemeris_type": 0,
        "meta_classification_type": "U",
        "meta_norad_cat_id": 37036,
        "meta_element_set_no": 999,
        "meta_rev_at_epoch": 63565,
        "meta_bstar": 0.00035846566,
        "meta_mean_motion_dot": 5.61e-06,
        "meta_mean_motion_ddot": 0,
        "tle_line1": "1 37036U 99025EDU 25333.71752762  .00000561  00000+0  35847-3 0  9998",
        "tle_line2": "2 37036  98.7130 326.9903 0124416  91.4720 270.0704 14.03538863635658"
      },
      "geometry": {
        "type": "Point",
        "coordinates": [
          -38.31366659000468,
          44.69914522716021
        ]
      }
    },
    {
      "type": "Feature",
      "properties": {
        "norad_id": 37044,
        "name": "FENGYUN 1C DEB",
        "group": "fengyun-1c-debris",
        "lat": -50.47460441281097,
        "lon": -107.04867059601001,
        "alt_km": 728.5724627909176,
        "timestamp": "2025-12-03T06:58:43.526948+00:00",
        "meta_object_name": "FENGYUN 1C DEB",
        "meta_object_id": "1999-025EEC",
        "meta_epoch": "2025-12-01T03:03:24.409440",
        "meta_mean_motion": 13.70516609,
        "meta_eccentricity": 0.05098346,
        "meta_inclination": 98.9654,
        "meta_ra_of_asc_node": 81.9541,
        "meta_arg_of_pericenter": 192.15,
        "meta_mean_anomaly": 166.6962,
        "meta_ephemeris_type": 0,
        "meta_classification_type": "U",
        "meta_norad_cat_id": 37044,
        "meta_element_set_no": 999,
        "meta_rev_at_epoch": 83699,
        "meta_bstar": 0.003746271,
        "meta_mean_motion_dot": 8.367e-05,
        "meta_mean_motion_ddot": 0,
        "tle_line1": "1 37044U 99025EEC 25335.12736585  .00008367  00000+0  37463-2 0  9996",
        "tle_line2": "2 37044  98.9654  81.9541 0509834 192.1500 166.6962 13.70516609836995"
      },
      "geometry": {
        "type": "Point",
        "coordinates": [
          -107.04867059601001,
          -50.47460441281097
        ]
      }
    },
    {
      "type": "Feature",
      "properties": {
        "norad_id": 37046,
        "name": "FENGYUN 1C DEB",
        "group": "fengyun-1c-debris",
        "lat": -45.8911917624128,
        "lon": 162.87822534220788,
        "alt_km": 827.2581546570564,
        "timestamp": "2025-12-03T06:58:43.526958+00:00",
        "meta_object_name": "FENGYUN 1C DEB",
        "meta_object_id": "1999-025EEE",
        "meta_epoch": "2025-11-28T06:15:00.234432",
        "meta_mean_motion": 14.24764433,
        "meta_eccentricity": 0.00496678,
        "meta_inclination": 98.5468,
        "meta_ra_of_asc_node": 346.9063,
        "meta_arg_of_pericenter": 349.8897,
        "meta_mean_anomaly": 10.1279,
        "meta_ephemeris_type": 0,
        "meta_classification_type": "U",
        "meta_norad_cat_id": 37046,
        "meta_element_set_no": 999,
        "meta_rev_at_epoch": 63975,
        "meta_bstar": 0.00081954575,
        "meta_mean_motion_dot": 1.891e-05,
        "meta_mean_motion_ddot": 0,
        "tle_line1": "1 37046U 99025EEE 25332.26041938  .00001891  00000+0  81955-3 0  9992",
        "tle_line2": "2 37046  98.5468 346.9063 0049667 349.8897  10.1279 14.24764433639751"
      },
      "geometry": {
        "type": "Point",
        "coordinates": [
          162.87822534220788,
          -45.8911917624128
        ]
      }
    },
    {
      "type": "Feature",
      "properties": {
        "norad_id": 37048,
        "name": "FENGYUN 1C DEB",
        "group": "fengyun-1c-debris",
        "lat": -57.091919907576944,
        "lon": -146.62002385226168,
        "alt_km": 1135.546175034604,
        "timestamp": "2025-12-03T06:58:43.526969+00:00",
        "meta_object_name": "FENGYUN 1C DEB",
        "meta_object_id": "1999-025EEG",
        "meta_epoch": "2025-12-02T20:47:13.549056",
        "meta_mean_motion": 13.6513046,
        "meta_eccentricity": 0.0252737,
        "meta_inclination": 98.8882,
        "meta_ra_of_asc_node": 198.9974,
        "meta_arg_of_pericenter": 175.2507,
        "meta_mean_anomaly": 198.4807,
        "meta_ephemeris_type": 0,
        "meta_classification_type": "U",
        "meta_norad_cat_id": 37048,
        "meta_element_set_no": 999,
        "meta_rev_at_epoch": 62035,
        "meta_bstar": 0.00029274,
        "meta_mean_motion_dot": 2.57e-06,
        "meta_mean_motion_ddot": 0,
        "tle_line1": "1 37048U 99025EEG 25336.86612904  .00000257  00000+0  29274-3 0  9992",
        "tle_line2": "2 37048  98.8882 198.9974 0252737 175.2507 198.4807 13.65130460620359"
      },
      "geometry": {
        "type": "Point",
        "coordinates": [
          -146.62002385226168,
          -57.091919907576944
        ]
      }
    },
    {
      "type": "Feature",
      "properties": {
        "norad_id": 37054,
        "name": "FENGYUN 1C DEB",
        "group": "fengyun-1c-debris",
        "lat": -81.28633029825565,
        "lon": 61.13050463508549,
        "alt_km": 886.4782737391397,
        "timestamp": "2025-12-03T06:58:43.526978+00:00",
        "meta_object_name": "FENGYUN 1C DEB",
        "meta_object_id": "1999-025EEN",
        "meta_epoch": "2025-11-29T05:17:38.461056",
        "meta_mean_motion": 14.19427383,
        "meta_eccentricity": 0.01006888,
        "meta_inclination": 98.5491,
        "meta_ra_of_asc_node": 316.1491,
        "meta_arg_of_pericenter": 144.0639,
        "meta_mean_anomaly": 216.7364,
        "meta_ephemeris_type": 0,
        "meta_classification_type": "U",
        "meta_norad_cat_id": 37054,
        "meta_element_set_no": 999,
        "meta_rev_at_epoch": 64237,
        "meta_bstar": 0.00028093156,
        "meta_mean_motion_dot": 5.8e-06,
        "meta_mean_motion_ddot": 0,
        "tle_line1": "1 37054U 99025EEN 25333.22058404  .00000580  00000+0  28093-3 0  9992",
        "tle_line2": "2 37054  98.5491 316.1491 0100688 144.0639 216.7364 14.19427383642375"
      },
      "geometry": {
        "type": "Point",
        "coordinates": [
          61.13050463508549,
          -81.28633029825565
        ]
      }
    }
  ]
}